{
"type": "FeatureCollection",
"name": "renewable_energy_points",
"crs": { "type": "name", "properties": { "name": "urn:ogc:def:crs:OGC:1.3:CRS84" } },
"features": [
{ "type": "Feature", "properties": { "fid": 7.0, "Capacity (": "1", "Type": "Solar", "Status": "In Operation", "Project Na": "Kimberley SunMine", "Owner": "Teck Resources Limited.", "Province": "British Columbia", "Ownership": "Private", "Year": "2015", "Latitude": 49.7, "Longitude": -115.9, "Notes/Data": null, "% of Indig": null, "Share of I": "No Indigenous Ownership", "Link": "https://www.kimberley.ca/sunmine", "field_15": null, "field_16": null, "field_17": null, "field_18": null, "field_19": null, "field_20": null, "field_21": null, "field_22": null, "field_23": null, "field_24": null, "field_25": null, "field_26": null }, "geometry": { "type": "Point", "coordinates": [ -115.948174336040225, 49.668821634061182 ] } },
{ "type": "Feature", "properties": { "fid": 1.0, "Capacity (": "1.25", "Type": "Solar", "Status": "In Operation", "Project Na": "Tsilhqot’in Solar Farm", "Owner": "Tŝilhqot’in National Government (TNG)", "Province": "British Columbia", "Ownership": "Private", "Year": null, "Latitude": 52.1201192, "Longitude": -122.2236494, "Notes/Data": "https://newrelationshiptrust.ca/tsilhqotin-solar-farm/,https://thenarwhal.ca/tsilhqotin-first-nation-opens-b-c-s-largest-solar-farm/,https://www.bchydro.com/content/dam/BCHydro/customer-portal/documents/corporate/independent-power-producers-calls-for-pow", "% of Indig": "100", "Share of I": "Wholly Indigenous Owned", "Link": null, "field_15": null, "field_16": null, "field_17": null, "field_18": null, "field_19": null, "field_20": null, "field_21": null, "field_22": null, "field_23": null, "field_24": null, "field_25": null, "field_26": null }, "geometry": { "type": "Point", "coordinates": [ -122.978465737256002, 51.935411036924918 ] } },
{ "type": "Feature", "properties": { "fid": 13.0, "Capacity (": "3.8", "Type": "Solar", "Status": "In Development", "Project Na": "Anahim Lake", "Owner": "Ulkatcho Energy Corporation", "Province": "British Columbia", "Ownership": "Private", "Year": "2025", "Latitude": 52.4666, "Longitude": -125.308, "Notes/Data": "https://vancouversun.com/news/local-news/ulkatcho-first-nation-solar-farm-in-bc-expected-to-save-millions-of-litres-of-diesel-a-year,https://www.ulkatcho.ca/news/Ulkatcho_Energy_Corporation%20.htm", "% of Indig": "100", "Share of I": "Wholly Indigenous Owned", "Link": null, "field_15": null, "field_16": null, "field_17": null, "field_18": null, "field_19": null, "field_20": null, "field_21": null, "field_22": null, "field_23": null, "field_24": null, "field_25": null, "field_26": null }, "geometry": { "type": "Point", "coordinates": [ -125.31092922338064, 52.466450515429173 ] } },
{ "type": "Feature", "properties": { "fid": 5.0, "Capacity (": "15", "Type": "Solar", "Status": "In Development", "Project Na": "Nicola Lake Solar", "Owner": "Okanagan Nation Alliance/Upper Nicola Band", "Province": "British Columbia", "Ownership": "Joint", "Year": null, "Latitude": 50.16086599, "Longitude": -120.6257455, "Notes/Data": "https://www.castanet.net/news/West-Kelowna/433770/BC-Hydro-signs-deal-with-Okanagan-Nation-Alliance-Upper-Nicola-Band-for-solar-project-years-in-the-making,https://syilx.org/historic-electricity-purchase-agreement-signed-with-bc-hydro-to-fulfil-2011-comm", "% of Indig": null, "Share of I": "Wholly Indigenous Owned", "Link": null, "field_15": null, "field_16": null, "field_17": null, "field_18": null, "field_19": null, "field_20": null, "field_21": null, "field_22": null, "field_23": null, "field_24": null, "field_25": null, "field_26": null }, "geometry": { "type": "Point", "coordinates": [ -120.443670824294273, 50.18996325059608 ] } },
{ "type": "Feature", "properties": { "fid": 2.0, "Capacity (": "75", "Type": "Solar", "Status": "In Operation", "Project Na": "T'Sou-ke Community Solar\n", "Owner": "T'Sou-ke First Nation", "Province": "British Columbia", "Ownership": "Community - First Nations", "Year": "2010", "Latitude": 48.38459219, "Longitude": -123.6978358, "Notes/Data": "https://indigenouscleanenergy.com/connect-learn/indigenous-led-clean-energy-project-map/", "% of Indig": null, "Share of I": "Wholly Indigenous Owned", "Link": "https://www.tsoukenation.com/first-nation-takes-lead-on-solar-power/", "field_15": null, "field_16": null, "field_17": null, "field_18": null, "field_19": null, "field_20": null, "field_21": null, "field_22": null, "field_23": null, "field_24": null, "field_25": null, "field_26": null }, "geometry": { "type": "Point", "coordinates": [ -123.6978358, 48.384592190000021 ] } },
{ "type": "Feature", "properties": { "fid": 8.0, "Capacity (": "100", "Type": "Solar", "Status": "In Development", "Project Na": "Jordan Solar", "Owner": "Recurrent Energy", "Province": "British Columbia", "Ownership": "Private", "Year": null, "Latitude": 48.42996671, "Longitude": -123.9989844, "Notes/Data": "https://projects.eao.gov.bc.ca/p/657752448ab72700223e5c01/project-details", "% of Indig": null, "Share of I": "No Indigenous Ownership", "Link": "https://recurrentenergy.com/project/jordan-solar-and-energy-storage/", "field_15": null, "field_16": null, "field_17": null, "field_18": null, "field_19": null, "field_20": null, "field_21": null, "field_22": null, "field_23": null, "field_24": null, "field_25": null, "field_26": null }, "geometry": { "type": "Point", "coordinates": [ -123.964655779680186, 48.435891484154681 ] } },
{ "type": "Feature", "properties": { "fid": 11.0, "Capacity (": "100", "Type": "Solar", "Status": "In Development", "Project Na": "Chasm Solar", "Owner": "Recurrent Energy", "Province": "British Columbia", "Ownership": "Private", "Year": null, "Latitude": 51.20829584, "Longitude": -121.5594366, "Notes/Data": "https://projects.eao.gov.bc.ca/p/65208e4fa6bc2000223fb46c/project-details", "% of Indig": null, "Share of I": "No Indigenous Ownership", "Link": "https://recurrentenergy.com/project/chasm/", "field_15": null, "field_16": null, "field_17": null, "field_18": null, "field_19": null, "field_20": null, "field_21": null, "field_22": null, "field_23": null, "field_24": null, "field_25": null, "field_26": null }, "geometry": { "type": "Point", "coordinates": [ -121.550376243240706, 51.185511350426928 ] } },
{ "type": "Feature", "properties": { "fid": 12.0, "Capacity (": "100", "Type": "Solar", "Status": "In Development", "Project Na": "Aspen Solar and Energy Storage Project", "Owner": "Recurrent Energy", "Province": "British Columbia", "Ownership": "Private", "Year": null, "Latitude": 49.6155473, "Longitude": -120.220867, "Notes/Data": "https://projects.eao.gov.bc.ca/p/6436d03c5acfec0022f3e020/project-details", "% of Indig": null, "Share of I": "No Indigenous Ownership", "Link": "https://recurrentenergy.com/project/aspen-solar-and-energy-storage/", "field_15": null, "field_16": null, "field_17": null, "field_18": null, "field_19": null, "field_20": null, "field_21": null, "field_22": null, "field_23": null, "field_24": null, "field_25": null, "field_26": null }, "geometry": { "type": "Point", "coordinates": [ -120.475639312689665, 49.846695635773742 ] } },
{ "type": "Feature", "properties": { "fid": 9.0, "Capacity (": "150", "Type": "Solar", "Status": "In Development", "Project Na": "Highland Solar", "Owner": "Recurrent Energy", "Province": "British Columbia", "Ownership": "Private", "Year": null, "Latitude": 50.58665036, "Longitude": -121.1707545, "Notes/Data": "https://projects.eao.gov.bc.ca/p/6463c02c6d6f750022d89c3d/project-details", "% of Indig": null, "Share of I": "No Indigenous Ownership", "Link": "https://recurrentenergy.com/project/highland-solar-and-energy-storage-project/", "field_15": null, "field_16": null, "field_17": null, "field_18": null, "field_19": null, "field_20": null, "field_21": null, "field_22": null, "field_23": null, "field_24": null, "field_25": null, "field_26": null }, "geometry": { "type": "Point", "coordinates": [ -121.170754500000015, 50.586650360000029 ] } },
{ "type": "Feature", "properties": { "fid": 10.0, "Capacity (": null, "Type": "Solar", "Status": "In Operation", "Project Na": "Community Renewable Electrification Project", "Owner": "Xeni Gwet'in First Nation", "Province": "British Columbia", "Ownership": "Community - First Nations", "Year": "2015", "Latitude": 51.47034752, "Longitude": -123.9451365, "Notes/Data": "Hoicka", "% of Indig": null, "Share of I": "Wholly Indigenous Owned", "Link": null, "field_15": null, "field_16": null, "field_17": null, "field_18": null, "field_19": null, "field_20": null, "field_21": null, "field_22": null, "field_23": null, "field_24": null, "field_25": null, "field_26": null }, "geometry": { "type": "Point", "coordinates": [ -123.948534067082079, 51.468860144573 ] } },
{ "type": "Feature", "properties": { "fid": 4.0, "Capacity (": "15", "Type": "Solar", "Status": "In Operation", "Project Na": "quA-ymn Solar", "Owner": "shQUAQUash Energy LP / quA-ymn Solar LP", "Province": "British Columbia", "Ownership": "Joint", "Year": null, "Latitude": 50.47, "Longitude": -121.02, "Notes/Data": null, "% of Indig": null, "Share of I": null, "Link": null, "field_15": null, "field_16": null, "field_17": null, "field_18": null, "field_19": null, "field_20": null, "field_21": null, "field_22": null, "field_23": null, "field_24": null, "field_25": null, "field_26": null }, "geometry": { "type": "Point", "coordinates": [ -120.993671254605431, 50.509722174289124 ] } },
{ "type": "Feature", "properties": { "fid": 3.0, "Capacity (": "2", "Type": "Solar", "Status": "In Operation", "Project Na": "Solar North", "Owner": "Tll Yahda Energy Ltd", "Province": "British Columbia", "Ownership": "Community - First Nations", "Year": null, "Latitude": 54.0272, "Longitude": -132.125, "Notes/Data": null, "% of Indig": "100", "Share of I": "Wholly Indigenous Owned", "Link": null, "field_15": null, "field_16": null, "field_17": null, "field_18": null, "field_19": null, "field_20": null, "field_21": null, "field_22": null, "field_23": null, "field_24": null, "field_25": null, "field_26": null }, "geometry": { "type": "Point", "coordinates": [ -132.125, 54.0272 ] } },
{ "type": "Feature", "properties": { "fid": 6.0, "Capacity (": "104", "Type": "Solar", "Status": "In Development", "Project Na": "m.ah a temEEwuh Solar", "Owner": "Logan BC Solar Project LP", "Province": "British Columba", "Ownership": "Joint", "Year": null, "Latitude": 50.55, "Longitude": -120.8, "Notes/Data": null, "% of Indig": null, "Share of I": null, "Link": null, "field_15": null, "field_16": null, "field_17": null, "field_18": null, "field_19": null, "field_20": null, "field_21": null, "field_22": null, "field_23": null, "field_24": null, "field_25": null, "field_26": null }, "geometry": { "type": "Point", "coordinates": [ -123.946185621203909, 51.460302441050395 ] } }
]
}
